{"type": "FeatureCollection", "features": [ {"type": "Feature", "properties": {"norad_id": 66052, "name": "HRC MONOBLOCK CAMERA", "group": "stations", "lat": 14.291793647318254, "lon": 162.87270210087863, "alt_km": 406.3048100382366, "timestamp": "2025-12-10T18:56:58.849280+00:00", "meta": {"OBJECT_NAME": "HRC MONOBLOCK CAMERA", "OBJECT_ID": "1998-067XR", "EPOCH": "2025-12-10T01:53:33.064224", "MEAN_MOTION": 15.53848796, "ECCENTRICITY": 0.00036764, "INCLINATION": 51.6294, "RA_OF_ASC_NODE": 154.7721, "ARG_OF_PERICENTER": 173.0963, "MEAN_ANOMALY": 187.0078, "EPHEMERIS_TYPE": 0, "CLASSIFICATION_TYPE": "U", "NORAD_CAT_ID": 66052, "ELEMENT_SET_NO": 999, "REV_AT_EPOCH": 842, "BSTAR": 0.00070942813, "MEAN_MOTION_DOT": 0.00046287, "MEAN_MOTION_DDOT": 0}, "tle": {"line1": "1 66052U 98067XR  25344.07885491  .00046287  00000+0  70943-3 0  9991", "line2": "2 66052  51.6294 154.7721 0003676 173.0963 187.0078 15.53848796  8427"}}, "geometry": {"type": "Point", "coordinates": [162.87270210087863, 14.291793647318254]}}, {"type": "Feature", "properties": {"norad_id": 66174, "name": "HTV-X1", "group": "stations", "lat": -41.008666584698986, "lon": 108.58808267703144, "alt_km": 421.7755381971101, "timestamp": "2025-12-10T18:56:58.849290+00:00", "meta": {"OBJECT_NAME": "HTV-X1", "OBJECT_ID": "2025-241A", "EPOCH": "2025-12-10T03:42:55.481184", "MEAN_MOTION": 15.49465664, "ECCENTRICITY": 0.0003395, "INCLINATION": 51.6306, "RA_OF_ASC_NODE": 155.2782, "ARG_OF_PERICENTER": 228.7876, "MEAN_ANOMALY": 131.282, "EPHEMERIS_TYPE": 0, "CLASSIFICATION_TYPE": "U", "NORAD_CAT_ID": 66174, "ELEMENT_SET_NO": 999, "REV_AT_EPOCH": 51, "BSTAR": 0.00027248017, "MEAN_MOTION_DOT": 0.00014837, "MEAN_MOTION_DDOT": 0}, "tle": {"line1": "1 66174U 25241A   25344.15480881  .00014837  00000+0  27248-3 0  9999", "line2": "2 66174  51.6306 155.2782 0003395 228.7876 131.2820 15.49465664   510"}}, "geometry": {"type": "Point", "coordinates": [108.58808267703144, -41.008666584698986]}}, {"type": "Feature", "properties": {"norad_id": 66515, "name": "SZ-21 MODULE", "group": "stations", "lat": -28.41693907844325, "lon": -114.28788595448981, "alt_km": 379.48203011843725, "timestamp": "2025-12-10T18:56:58.849300+00:00", "meta": {"OBJECT_NAME": "SZ-21 MODULE", "OBJECT_ID": "2025-246C", "EPOCH": "2025-12-10T11:51:01.003104", "MEAN_MOTION": 15.62311534, "ECCENTRICITY": 0.0006278, "INCLINATION": 41.4772, "RA_OF_ASC_NODE": 29.7454, "ARG_OF_PERICENTER": 248.1298, "MEAN_ANOMALY": 111.8874, "EPHEMERIS_TYPE": 0, "CLASSIFICATION_TYPE": "U", "NORAD_CAT_ID": 66515, "ELEMENT_SET_NO": 999, "REV_AT_EPOCH": 409, "BSTAR": 0.00039111, "MEAN_MOTION_DOT": 0.00035412, "MEAN_MOTION_DDOT": 0}, "tle": {"line1": "1 66515U 25246C   25344.49376161  .00035412  00000+0  39111-3 0  9999", "line2": "2 66515  41.4772  29.7454 0006278 248.1298 111.8874 15.62311534  4092"}}, "geometry": {"type": "Point", "coordinates": [-114.28788595448981, -28.41693907844325]}}, {"type": "Feature", "properties": {"norad_id": 66645, "name": "SHENZHOU-22", "group": "stations", "lat": -12.645491807478557, "lon": 13.826891344223217, "alt_km": 386.51943057580866, "timestamp": "2025-12-10T18:56:58.849310+00:00", "meta": {"OBJECT_NAME": "SHENZHOU-22", "OBJECT_ID": "2025-272A", "EPOCH": "2025-12-10T06:43:57.761760", "MEAN_MOTION": 15.59014677, "ECCENTRICITY": 0.00088021, "INCLINATION": 41.4682, "RA_OF_ASC_NODE": 31.6356, "ARG_OF_PERICENTER": 10.5172, "MEAN_ANOMALY": 349.5849, "EPHEMERIS_TYPE": 0, "CLASSIFICATION_TYPE": "U", "NORAD_CAT_ID": 66645, "ELEMENT_SET_NO": 999, "REV_AT_EPOCH": 26357, "BSTAR": 0.00043406543, "MEAN_MOTION_DOT": 0.00034646, "MEAN_MOTION_DDOT": 0}, "tle": {"line1": "1 66645U 25272A   25344.28052965  .00034646  00000+0  43407-3 0  9993", "line2": "2 66645  41.4682  31.6356 0008802  10.5172 349.5849 15.59014677263572"}}, "geometry": {"type": "Point", "coordinates": [13.826891344223217, -12.645491807478557]}}, {"type": "Feature", "properties": {"norad_id": 66664, "name": "SOYUZ-MS 28", "group": "stations", "lat": -41.00872664942292, "lon": 108.5879676034905, "alt_km": 421.77588966486474, "timestamp": "2025-12-10T18:56:58.849320+00:00", "meta": {"OBJECT_NAME": "SOYUZ-MS 28", "OBJECT_ID": "2025-275A", "EPOCH": "2025-12-10T03:42:55.481184", "MEAN_MOTION": 15.4946563, "ECCENTRICITY": 0.0003395, "INCLINATION": 51.6306, "RA_OF_ASC_NODE": 155.2782, "ARG_OF_PERICENTER": 228.7831, "MEAN_ANOMALY": 131.2865, "EPHEMERIS_TYPE": 0, "CLASSIFICATION_TYPE": "U", "NORAD_CAT_ID": 66664, "ELEMENT_SET_NO": 999, "REV_AT_EPOCH": 204, "BSTAR": 0.0002721, "MEAN_MOTION_DOT": 0.00014816, "MEAN_MOTION_DDOT": 0}, "tle": {"line1": "1 66664U 25275A   25344.15480881  .00014816  00000+0  27210-3 0  9996", "line2": "2 66664  51.6306 155.2782 0003395 228.7831 131.2865 15.49465630  2047"}}, "geometry": {"type": "Point", "coordinates": [108.5879676034905, -41.00872664942292]}}, {"type": "Feature", "properties": {"norad_id": 66906, "name": "1998-067XS", "group": "stations", "lat": -26.136693260930272, "lon": 129.20926614052337, "alt_km": 420.7275864408384, "timestamp": "2025-12-10T18:56:58.849330+00:00", "meta": {"OBJECT_NAME": "1998-067XS", "OBJECT_ID": "1998-067XS", "EPOCH": "2025-12-10T00:31:58.659744", "MEAN_MOTION": 15.50350034, "ECCENTRICITY": 0.0003912, "INCLINATION": 51.6303, "RA_OF_ASC_NODE": 155.8936, "ARG_OF_PERICENTER": 190.7132, "MEAN_ANOMALY": 169.3774, "EPHEMERIS_TYPE": 0, "CLASSIFICATION_TYPE": "U", "NORAD_CAT_ID": 66906, "ELEMENT_SET_NO": 999, "REV_AT_EPOCH": 119, "BSTAR": 0.00063423893, "MEAN_MOTION_DOT": 0.00036365, "MEAN_MOTION_DDOT": 0}, "tle": {"line1": "1 66906U 98067XS  25344.02220671  .00036365  00000+0  63424-3 0  9999", "line2": "2 66906  51.6303 155.8936 0003912 190.7132 169.3774 15.50350034  1196"}}, "geometry": {"type": "Point", "coordinates": [129.20926614052337, -26.136693260930272]}}, {"type": "Feature", "properties": {"norad_id": 66907, "name": "1998-067XT", "group": "stations", "lat": -18.96665516759912, "lon": 136.26590492010635, "alt_km": 418.1764042970335, "timestamp": "2025-12-10T18:56:58.849339+00:00", "meta": {"OBJECT_NAME": "1998-067XT", "OBJECT_ID": "1998-067XT", "EPOCH": "2025-12-09T12:07:37.114752", "MEAN_MOTION": 15.50864429, "ECCENTRICITY": 0.00048036, "INCLINATION": 51.6307, "RA_OF_ASC_NODE": 158.4423, "ARG_OF_PERICENTER": 208.5081, "MEAN_ANOMALY": 151.5646, "EPHEMERIS_TYPE": 0, "CLASSIFICATION_TYPE": "U", "NORAD_CAT_ID": 66907, "ELEMENT_SET_NO": 999, "REV_AT_EPOCH": 111, "BSTAR": 0.0012921241, "MEAN_MOTION_DOT": 0.00076342, "MEAN_MOTION_DDOT": 0}, "tle": {"line1": "1 66907U 98067XT  25343.50529068  .00076342  00000+0  12921-2 0  9998", "line2": "2 66907  51.6307 158.4423 0004803 208.5081 151.5646 15.50864429  1113"}}, "geometry": {"type": "Point", "coordinates": [136.26590492010635, -18.96665516759912]}}, {"type": "Feature", "properties": {"norad_id": 66908, "name": "1998-067XU", "group": "stations", "lat": -17.907509073233214, "lon": 137.23158359661346, "alt_km": 417.92405045041323, "timestamp": "2025-12-10T18:56:58.849349+00:00", "meta": {"OBJECT_NAME": "1998-067XU", "OBJECT_ID": "1998-067XU", "EPOCH": "2025-12-10T11:19:03.672192", "MEAN_MOTION": 15.51078724, "ECCENTRICITY": 0.0004812, "INCLINATION": 51.6304, "RA_OF_ASC_NODE": 153.6446, "ARG_OF_PERICENTER": 212.6459, "MEAN_ANOMALY": 147.4233, "EPHEMERIS_TYPE": 0, "CLASSIFICATION_TYPE": "U", "NORAD_CAT_ID": 66908, "ELEMENT_SET_NO": 999, "REV_AT_EPOCH": 126, "BSTAR": 0.001489, "MEAN_MOTION_DOT": 0.00088864, "MEAN_MOTION_DDOT": 0}, "tle": {"line1": "1 66908U 98067XU  25344.47157028  .00088864  00000+0  14890-2 0  9998", "line2": "2 66908  51.6304 153.6446 0004812 212.6459 147.4233 15.51078724  1266"}}, "geometry": {"type": "Point", "coordinates": [137.23158359661346, -17.907509073233214]}}, {"type": "Feature", "properties": {"norad_id": 66909, "name": "SILVERSAT", "group": "stations", "lat": -16.890647809925838, "lon": 138.1400297258984, "alt_km": 417.60118970995245, "timestamp": "2025-12-10T18:56:58.849386+00:00", "meta": {"OBJECT_NAME": "SILVERSAT", "OBJECT_ID": "1998-067XV", "EPOCH": "2025-12-09T19:50:59.696448", "MEAN_MOTION": 15.51056405, "ECCENTRICITY": 0.00048767, "INCLINATION": 51.6304, "RA_OF_ASC_NODE": 156.8402, "ARG_OF_PERICENTER": 210.6196, "MEAN_ANOMALY": 149.451, "EPHEMERIS_TYPE": 0, "CLASSIFICATION_TYPE": "U", "NORAD_CAT_ID": 66909, "ELEMENT_SET_NO": 999, "REV_AT_EPOCH": 116, "BSTAR": 0.001540003, "MEAN_MOTION_DOT": 0.00091886, "MEAN_MOTION_DDOT": 0}, "tle": {"line1": "1 66909U 98067XV  25343.82707982  .00091886  00000+0  15400-2 0  9993", "line2": "2 66909  51.6304 156.8402 0004876 210.6196 149.4510 15.51056405  1161"}}, "geometry": {"type": "Point", "coordinates": [138.1400297258984, -16.890647809925838]}}, {"type": "Feature", "properties": {"norad_id": 66910, "name": "1998-067XW", "group": "stations", "lat": -11.271858237158648, "lon": 142.96200536727352, "alt_km": 417.8641642658622, "timestamp": "2025-12-10T18:56:58.849398+00:00", "meta": {"OBJECT_NAME": "1998-067XW", "OBJECT_ID": "1998-067XW", "EPOCH": "2025-12-10T11:16:54.562944", "MEAN_MOTION": 15.51350337, "ECCENTRICITY": 0.0005542, "INCLINATION": 51.6299, "RA_OF_ASC_NODE": 153.635, "ARG_OF_PERICENTER": 197.1967, "MEAN_ANOMALY": 162.8836, "EPHEMERIS_TYPE": 0, "CLASSIFICATION_TYPE": "U", "NORAD_CAT_ID": 66910, "ELEMENT_SET_NO": 999, "REV_AT_EPOCH": 126, "BSTAR": 0.0013818, "MEAN_MOTION_DOT": 0.00083191, "MEAN_MOTION_DDOT": 0}, "tle": {"line1": "1 66910U 98067XW  25344.47007596  .00083191  00000+0  13818-2 0  9992", "line2": "2 66910  51.6299 153.6350 0005542 197.1967 162.8836 15.51350337  1261"}}, "geometry": {"type": "Point", "coordinates": [142.96200536727352, -11.271858237158648]}}]}